{
    "links": {
        "self": "http://www.neowsapp.com/rest/v1/neo/3892767?api_key=iIulBulltgU6a56xZRHN4H3l9WmuAYTsLGpBGhQ2"
    },
    "id": "3892767",
    "neo_reference_id": "3892767",
    "name": "(2019 VS4)",
    "designation": "2019 VS4",
    "nasa_jpl_url": "http://ssd.jpl.nasa.gov/sbdb.cgi?sstr=3892767",
    "absolute_magnitude_h": 26.9,
    "estimated_diameter": {
        "kilometers": {
            "estimated_diameter_min": 0.0110803882,
            "estimated_diameter_max": 0.0247765013
        },
        "meters": {
            "estimated_diameter_min": 11.0803882126,
            "estimated_diameter_max": 24.7765012606
        },
        "miles": {
            "estimated_diameter_min": 0.0068850319,
            "estimated_diameter_max": 0.0153953994
        },
        "feet": {
            "estimated_diameter_min": 36.3529808636,
            "estimated_diameter_max": 81.2877363957
        }
    },
    "is_potentially_hazardous_asteroid": false,
    "close_approach_data": [
        {
            "close_approach_date": "2017-01-05",
            "close_approach_date_full": "2017-Jan-05 21:31",
            "epoch_date_close_approach": 1483651860000,
            "relative_velocity": {
                "kilometers_per_second": "20.6965380218",
                "kilometers_per_hour": "74507.5368785308",
                "miles_per_hour": "46296.085900996"
            },
            "miss_distance": {
                "astronomical": "0.4396015786",
                "lunar": "171.0050140754",
                "kilometers": "65763459.807197582",
                "miles": "40863519.0576353516"
            },
            "orbiting_body": "Earth"
        },
        {
            "close_approach_date": "2019-11-06",
            "close_approach_date_full": "2019-Nov-06 02:53",
            "epoch_date_close_approach": 1573008780000,
            "relative_velocity": {
                "kilometers_per_second": "7.1344886269",
                "kilometers_per_hour": "25684.1590570037",
                "miles_per_hour": "15959.1376096143"
            },
            "miss_distance": {
                "astronomical": "0.0008961041",
                "lunar": "0.3485844949",
                "kilometers": "134055.264658267",
                "miles": "83298.0788754046"
            },
            "orbiting_body": "Moon"
        },
        {
            "close_approach_date": "2019-11-06",
            "close_approach_date_full": "2019-Nov-06 16:28",
            "epoch_date_close_approach": 1573057680000,
            "relative_velocity": {
                "kilometers_per_second": "7.5081360264",
                "kilometers_per_hour": "27029.2896949349",
                "miles_per_hour": "16794.9494773889"
            },
            "miss_distance": {
                "astronomical": "0.0009314302",
                "lunar": "0.3623263478",
                "kilometers": "139339.973973674",
                "miles": "86581.8449737412"
            },
            "orbiting_body": "Earth"
        },
        {
            "close_approach_date": "2072-01-05",
            "close_approach_date_full": "2072-Jan-05 22:54",
            "epoch_date_close_approach": 3219260040000,
            "relative_velocity": {
                "kilometers_per_second": "17.5217255705",
                "kilometers_per_hour": "63078.2120539645",
                "miles_per_hour": "39194.3479287537"
            },
            "miss_distance": {
                "astronomical": "0.3253537168",
                "lunar": "126.5625958352",
                "kilometers": "48672223.029863216",
                "miles": "30243516.9802397408"
            },
            "orbiting_body": "Earth"
        },
        {
            "close_approach_date": "2074-09-29",
            "close_approach_date_full": "2074-Sep-29 07:34",
            "epoch_date_close_approach": 3305432040000,
            "relative_velocity": {
                "kilometers_per_second": "13.3645343791",
                "kilometers_per_hour": "48112.323764621",
                "miles_per_hour": "29895.1269525224"
            },
            "miss_distance": {
                "astronomical": "0.1899545863",
                "lunar": "73.8923340707",
                "kilometers": "28416801.507211181",
                "miles": "17657381.6729130578"
            },
            "orbiting_body": "Earth"
        }
    ],
    "orbital_data": {
        "orbit_id": "2",
        "orbit_determination_date": "2019-11-11 04:59:48",
        "first_observation_date": "2019-11-06",
        "last_observation_date": "2019-11-08",
        "data_arc_in_days": 2,
        "observations_used": 171,
        "orbit_uncertainty": "6",
        "minimum_orbit_intersection": ".0013724",
        "jupiter_tisserand_invariant": "3.633",
        "epoch_osculation": "2459000.5",
        "eccentricity": ".5130818023315933",
        "semi_major_axis": "2.029994093766636",
        "inclination": "3.49912090539608",
        "ascending_node_longitude": "223.3315633994696",
        "orbital_period": "1056.429666220213",
        "perihelion_distance": ".9884410654143612",
        "perihelion_argument": "188.7937437598372",
        "aphelion_distance": "3.071547122118911",
        "perihelion_time": "2458801.025314288457",
        "mean_anomaly": "67.97507600585162",
        "mean_motion": ".3407704379299",
        "equinox": "J2000",
        "orbit_class": {
            "orbit_class_type": "APO",
            "orbit_class_description": "Near-Earth asteroid orbits which cross the Earth’s orbit similar to that of 1862 Apollo",
            "orbit_class_range": "a (semi-major axis) > 1.0 AU; q (perihelion) < 1.017 AU"
        }
    },
    "is_sentry_object": false
}